COMMENT,ORIGINATOR,NORAD_CAT_ID,OBJECT_NAME,OBJECT_TYPE,CLASSIFICATION_TYPE,INTLDES,EPOCH,EPOCH_MICROSECONDS,MEAN_MOTION,ECCENTRICITY,INCLINATION,RA_OF_ASC_NODE,ARG_OF_PERICENTER,MEAN_ANOMALY,EPHEMERIS_TYPE,ELEMENT_SET_NO,REV_AT_EPOCH,BSTAR,MEAN_MOTION_DOT,MEAN_MOTION_DDOT,FILE,TLE_LINE0,TLE_LINE1,TLE_LINE2,OBJECT_ID,OBJECT_NUMBER,SEMIMAJOR_AXIS,PERIOD,APOGEE,PERIGEE
"GENERATED VIA SPACETRACK.ORG API","JSPOC","3890","NIMBUS 3","PAYLOAD","U","69037A","2016-01-08 21:17:05","644032","13.42497084","0.0038833","99.9678","280.9939","245.7312","245.6198","0","999","28921","1.7602e-05","-3.5e-07","0","1978186","0 NIMBUS 3","1  3890U 69037A   16008.88687088 -.00000035 +00000-0 +17602-4 0  9992","2  3890 099.9678 280.9939 0038833 245.7312 245.6198 13.42497084289218","1969-037A","3890","7478.128","107.262","1129.033","1070.953"
"GENERATED VIA SPACETRACK.ORG API","JSPOC","22824","STELLA","PAYLOAD","U","93061B","2016-01-08 21:17:06","694656","14.27360251","0.0007227","98.7467","317.4485","128.8986","293.8017","0","999","16091","2.5628e-06","-3.8e-07","0","1978186","0 STELLA","1 22824U 93061B   16008.88688304 -.00000038 +00000-0 +25628-5 0  9997","2 22824 098.7467 317.4485 0007227 128.8986 293.8017 14.27360251160911","1993-061B","22824","7178.705","100.885","805.758","795.381"
"GENERATED VIA SPACETRACK.ORG API","JSPOC","28738","CZ-2D R/B","ROCKET BODY","U","05024B","2016-01-08 21:17:09","751488","15.10090526","0.0012891","97.563","48.1942","16.957","343.2087","0","999","57648","7.8207e-05","1.212e-05","0","1978186","0 CZ-2D R/B","1 28738U 05024B   16008.88691842 +.00001212 +00000-0 +78207-4 0  9994","2 28738 097.5630 048.1942 0012891 016.9570 343.2087 15.10090526576483","2005-024B","28738","6914.060","95.358","544.838","527.012"
"GENERATED VIA SPACETRACK.ORG API","JSPOC","7682","COSMOS 715","PAYLOAD","U","75016E","2016-01-08 21:17:13","534080","12.4469719","0.0022284","74.0022","151.7956","341.0077","189.133","0","999","42751","-0.00011244","-3.2e-07","0","1978186","0 COSMOS 715","1  7682U 75016E   16008.88696220 -.00000032 +00000-0 -11244-3 0  9990","2  7682 074.0022 151.7956 0022284 341.0077 189.1330 12.44697190427511","1975-016E","7682","7864.890","115.690","1504.282","1469.229"
"GENERATED VIA SPACETRACK.ORG API","JSPOC","32052","COSMOS 2429","PAYLOAD","U","07038A","2016-01-08 21:17:25","141056","13.74864501","0.0039723","82.9819","134.7445","79.7445","51.2349","0","999","41776","8.2087e-06","2.4e-07","0","1978186","0 COSMOS 2429","1 32052U 07038A   16008.88709654 +.00000024 +00000-0 +82087-5 0  9998","2 32052 082.9819 134.7445 0039723 079.7445 051.2349 13.74864501417767","2007-038A","32052","7360.295","104.737","1011.397","952.923"
"GENERATED VIA SPACETRACK.ORG API","JSPOC","18106","SL-6 R/B(2)","ROCKET BODY","U","87050D","2016-01-08 21:17:26","311776","2.0358264","0.54725","69.8808","286.1893","135.9582","54.1437","0","999","20975","0","-3.51e-06","0","1977950","0 SL-6 R/B(2)","1 18106U 87050D   16008.88711009 -.00000351  00000-0  00000+0 0  9994","2 18106  69.8808 286.1893 5472500 135.9582  54.1437  2.03582640209757","1987-050D","18106","26297.109","707.329","34310.067","5527.881"
"GENERATED VIA SPACETRACK.ORG API","JSPOC","18106","SL-6 R/B(2)","ROCKET BODY","U","87050D","2016-01-08 21:17:26","311776","2.0358264","0.54725","69.8808","286.1893","135.9582","54.1437","0","999","20976","0","-3.51e-06","0","1978186","0 SL-6 R/B(2)","1 18106U 87050D   16008.88711009 -.00000351 +00000-0 +00000-0 0  9995","2 18106 069.8808 286.1893 5472500 135.9582 054.1437 02.03582640209768","1987-050D","18106","26297.109","707.329","34310.067","5527.881"
"GENERATED VIA SPACETRACK.ORG API","JSPOC","11238","COSMOS 1072","PAYLOAD","U","79003A","2016-01-08 21:17:40","555680","13.74106965","0.0038115","82.9418","146.7342","146.4221","27.2046","0","999","85379","1.2507e-05","2.7e-07","0","1978186","0 COSMOS 1072","1 11238U 79003A   16008.88727495 +.00000027 +00000-0 +12507-4 0  9997","2 11238 082.9418 146.7342 0038115 146.4221 027.2046 13.74106965853799","1979-003A","11238","7363.000","104.795","1012.929","956.801"
"GENERATED VIA SPACETRACK.ORG API","JSPOC","18123","DMSP 5D-2 F8 (USA 26)","PAYLOAD","U","87053A","2016-01-08 21:17:46","515552","14.18464728","0.0012943","98.7383","200.6127","323.4793","36.5499","0","999","47621","6.0918e-05","8.2e-07","0","1978186","0 DMSP 5D-2 F8 (USA 26)","1 18123U 87053A   16008.88734393 +.00000082 +00000-0 +60918-4 0  9996","2 18123 098.7383 200.6127 0012943 323.4793 036.5499 14.18464728476214","1987-053A","18123","7208.686","101.518","839.881","821.221"
"GENERATED VIA SPACETRACK.ORG API","JSPOC","28704","SL-12 R/B(2)","ROCKET BODY","U","05023H","2016-01-08 21:17:53","779200","1.00807304","0.0015728","8.6001","46.8838","228.9675","164.5015","0","999","3877","0","1.25e-06","0","1978186","0 SL-12 R/B(2)","1 28704U 05023H   16008.88742800 +.00000125 +00000-0 +00000-0 0  9991","2 28704 008.6001 046.8838 0015728 228.9675 164.5015 01.00807304038777","2005-023H","28704","42015.271","1428.467","35703.218","35571.054"
"GENERATED VIA SPACETRACK.ORG API","JSPOC","32477","PSLV R/B","ROCKET BODY","U","08002B","2016-01-08 21:18:01","185408","15.45976912","0.0045997","41.0316","249.7488","323.4171","36.3518","0","999","44317","0.00020895","0.00010609","0","1978186","0 PSLV R/B","1 32477U 08002B   16008.88751372 +.00010609 +00000-0 +20895-3 0  9992","2 32477 041.0316 249.7488 0045997 323.4171 036.3518 15.45976912443171","2008-002B","32477","6806.646","93.144","459.819","397.202"
"GENERATED VIA SPACETRACK.ORG API","JSPOC","39151","NEE 01 PEGASUS","PAYLOAD","U","13018B","2016-01-08 21:18:06","743520","14.79258868","0.0016265","98.0061","97.2696","312.0317","47.9509","0","999","14585","8.0393e-05","5.45e-06","0","1978186","0 NEE 01 PEGASUS","1 39151U 13018B   16008.88757805 +.00000545 +00000-0 +80393-4 0  9996","2 39151 098.0061 097.2696 0016265 312.0317 047.9509 14.79258868145856","2013-018B","39151","7009.801","97.346","643.067","620.265"
"GENERATED VIA SPACETRACK.ORG API","JSPOC","21781","COSMOS 2167","PAYLOAD","U","91077C","2016-01-08 21:18:08","925984","12.64187019","0.0008469","82.6056","153.094","115.6867","39.9546","0","999","11447","-2.0124e-05","7e-08","0","1978186","0 COSMOS 2167","1 21781U 91077C   16008.88760331 +.00000007 +00000-0 -20124-4 0  9995","2 21781 082.6056 153.0940 0008469 115.6867 039.9546 12.64187019114473","1991-077C","21781","7783.846","113.907","1412.304","1399.119"
"GENERATED VIA SPACETRACK.ORG API","JSPOC","28371","SAUDISAT 2","PAYLOAD","U","04025F","2016-01-08 21:18:19","627488","14.54136251","0.0025987","98.0587","334.329","164.342","195.8594","0","999","61149","3.5155e-05","1.05e-06","0","1977821","0 SAUDISAT 2","1 28371U 04025F   16008.88772717  .00000105  00000-0  35155-4 0  9993","2 28371  98.0587 334.3290 0025987 164.3420 195.8594 14.54136251611499","2004-025F","28371","7090.308","99.027","730.598","693.747"
"GENERATED VIA SPACETRACK.ORG API","JSPOC","10936","COSMOS 1019","PAYLOAD","U","78056G","2016-01-08 21:18:21","862656","12.52105181","0.0041536","74.0279","278.2268","295.9496","190.7114","0","999","71803","4.5284e-05","-9e-08","0","1978186","0 COSMOS 1019","1 10936U 78056G   16008.88775304 -.00000009 +00000-0 +45284-4 0  9999","2 10936 074.0279 278.2268 0041536 295.9496 190.7114 12.52105181718036","1978-056G","10936","7833.838","115.006","1488.242","1423.165"
"GENERATED VIA SPACETRACK.ORG API","JSPOC","7685","COSMOS 718","PAYLOAD","U","75016H","2016-01-08 21:18:29","827008","12.51340498","0.0038665","74.004","266.5475","359.283","130.2168","0","999","86648","0.00011925","2e-08","0","1978186","0 COSMOS 718","1  7685U 75016H   16008.88784522 +.00000002 +00000-0 +11925-3 0  9997","2  7685 074.0040 266.5475 0038665 359.2830 130.2168 12.51340498866486","1975-016H","7685","7837.029","115.076","1489.196","1428.593"
"GENERATED VIA SPACETRACK.ORG API","JSPOC","25721","ABRIXAS","PAYLOAD","U","99022A","2016-01-08 21:18:32","457888","15.57809686","0.0009768","48.4491","235.8008","168.3538","191.7636","0","999","92729","0.00021286","0.0001577","0","1978186","0 ABRIXAS","1 25721U 99022A   16008.88787567 +.00015770 +00000-0 +21286-3 0  9992","2 25721 048.4491 235.8008 0009768 168.3538 191.7636 15.57809686927296","1999-022A","25721","6772.134","92.437","400.614","387.384"
"GENERATED VIA SPACETRACK.ORG API","JSPOC","26034","CELESTIS 03/TAURUS R/B","ROCKET BODY","U","99070C","2016-01-08 21:18:33","972480","15.03016887","0.0014868","98.2845","156.558","115.5447","244.7315","0","999","86641","0.00044405","5.924e-05","0","1978186","0 CELESTIS 03/TAURUS R/B","1 26034U 99070C   16008.88789320 +.00005924 +00000-0 +44405-3 0  9990","2 26034 098.2845 156.5580 0014868 115.5447 244.7315 15.03016887866417","1999-070C","26034","6935.736","95.807","567.913","547.289"
"GENERATED VIA SPACETRACK.ORG API","JSPOC","37941","YAOGAN 13","PAYLOAD","U","11072A","2016-01-08 21:18:36","817632","15.17930311","0.0002063","97.4629","297.3512","95.3341","350.6487","0","999","22797","0.00012643","2.498e-05","0","1977847","0 YAOGAN 13","1 37941U 11072A   16008.88792613  .00002498  00000-0  12643-3 0  9996","2 37941  97.4629 297.3512 0002063  95.3341 350.6487 15.17930311227979","2011-072A","37941","6890.233","94.866","513.520","510.677"
"GENERATED VIA SPACETRACK.ORG API","JSPOC","32053","SL-8 R/B","ROCKET BODY","U","07038B","2016-01-08 21:18:36","376128","13.76230402","0.002768","82.9793","129.1186","77.6189","71.941","0","999","41824","1.1834e-05","2.7e-07","0","1978186","0 SL-8 R/B","1 32053U 07038B   16008.88792102 +.00000027 +00000-0 +11834-4 0  9993","2 32053 082.9793 129.1186 0027680 077.6189 071.9410 13.76230402418241","2007-038B","32053","7355.424","104.633","997.649","956.929"
